[{"OBJECT_NAME":"STARLINK-4302","OBJECT_ID":"2022-099S","EPOCH":"2026-03-09T21:41:08.387520","MEAN_MOTION":15.01272148,"ECCENTRICITY":0.00052174,"INCLINATION":97.6015,"RA_OF_ASC_NODE":190.4161,"ARG_OF_PERICENTER":196.9342,"MEAN_ANOMALY":163.1709,"EPHEMERIS_TYPE":0,"CLASSIFICATION_TYPE":"U","NORAD_CAT_ID":53481,"ELEMENT_SET_NO":999,"REV_AT_EPOCH":19601,"BSTAR":0.00064692591,"MEAN_MOTION_DOT":8.265e-5,"MEAN_MOTION_DDOT":0},{"OBJECT_NAME":"PROSPERO (BLACK ARROW)","OBJECT_ID":"1971-093A","EPOCH":"2026-03-09T22:08:42.448992","MEAN_MOTION":14.01391999,"ECCENTRICITY":0.05025266,"INCLINATION":82.0414,"RA_OF_ASC_NODE":17.9371,"ARG_OF_PERICENTER":151.6068,"MEAN_ANOMALY":211.3501,"EPHEMERIS_TYPE":0,"CLASSIFICATION_TYPE":"U","NORAD_CAT_ID":5580,"ELEMENT_SET_NO":999,"REV_AT_EPOCH":73462,"BSTAR":0.00028939621,"MEAN_MOTION_DOT":1.372e-5,"MEAN_MOTION_DDOT":0}]
